STARLINK-37396          
1 69256U 26117U   26158.25005787 -.02209010  13512-2 -56513-2 0  9993
2 69256  53.1568 293.1956 0000711  66.8826   2.9958 15.94821806  2647
STARLINK-37508          
1 69257U 26117V   26158.25005787 -.02238696  13898-2 -56504-2 0  9993
2 69257  53.1566 293.1803 0000737  64.3893  12.6552 15.95076109  2560
STARLINK-37276          
1 69258U 26117W   26158.25005787 -.01890335  10664-2 -36212-2 0  9999
2 69258  53.1559 293.0963 0000643  61.5979  55.5586 16.00012377  2566
STARLINK-37518          
1 69259U 26117X   26158.25005787 -.01944247  11239-2 -37333-2 0  9996
2 69259  53.1557 293.0850 0000658  75.8814  47.0715 15.99976975  2573
STARLINK-37478          
1 69260U 26117Y   26158.25005787 -.02067085  12496-2 -41687-2 0  9998
2 69260  53.1558 293.0832 0000668  73.6340  50.2096 15.99127856  2571
STARLINK-37506          
1 69261U 26117Z   26158.25005787 -.02107572  12970-2 -42450-2 0  9991
2 69261  53.1555 293.0737 0000769  66.4574  61.8722 15.99153689  2571
STARLINK-37503          
1 69262U 26117AA  26158.25005787 -.02157935  13557-2 -43645-2 0  9999
2 69262  53.1556 293.0613 0000802  66.5295  67.4097 15.99084878  2575
STARLINK-37502          
1 69263U 26117AB  26158.25005787 -.02084326  12654-2 -42706-2 0  9997
2 69263  53.1555 293.0563 0000800  61.7399  74.4880 15.98848714  2573
STARLINK-37486          
1 69264U 26117AC  26158.25005787 -.02053395  12308-2 -41934-2 0  9998
2 69264  53.1553 293.0445 0000749  67.1243  74.9126 15.98903948  2570
STARLINK-37435          
1 69265U 26117AD  26158.25005787 -.02041908  12251-2 -40475-2 0  9992
2 69265  53.1552 293.0243 0000803  68.0690  83.1702 15.99429257  2572
STARLINK-37464          
1 69266U 26117AE  26158.25005787 -.02038145  12278-2 -39286-2 0  9999
2 69266  53.1551 293.0045 0000797  59.3363 101.3548 15.99919857  2575
KUIPER-00282            
1 69267U 26118A   26158.25005787  .00058035  00000+0  16737-2 0  9990
2 69267  51.8577 101.4417 0011729 145.8689 163.8538 15.35084290  1826
KUIPER-00383            
1 69268U 26118B   26158.25005787  .00068319  00000+0  19372-2 0  9995
2 69268  51.8581 101.4151 0010989 144.8234 178.0234 15.35551363  1886
KUIPER-00527            
1 69269U 26118C   26158.25005787  .00071796  00000+0  20126-2 0  9998
2 69269  51.8609 101.3943 0009568 138.2106 194.9824 15.35899599  1307
KUIPER-00562            
1 69270U 26118D   26158.25005787  .00064688  00000+0  16785-2 0  9998
2 69270  51.8720 101.2472 0002017  86.8211 312.4412 15.38380808  2421
KUIPER-00570            
1 69271U 26118E   26158.25005787  .00057731  00000+0  16433-2 0  9990
2 69271  51.8568 101.4150 0011664 146.8082 176.0266 15.35498167  2008
KUIPER-00572            
1 69272U 26118F   26158.25005787  .00059823  00000+0  16374-2 0  9999
2 69272  51.8667 101.3571 0007318 135.2534 215.6324 15.36743848  1756
KUIPER-00581            
1 69273U 26118G   26158.25005787  .00059734  00000+0  16513-2 0  9996
2 69273  51.8646 101.3773 0008898 139.9308 201.4734 15.36424133  2541
KUIPER-00584            
1 69274U 26118H   26158.25005787  .00058427  00000+0  16771-2 0  9991
2 69274  51.8594 101.4331 0011194 152.3683 161.6237 15.35235245  1304
KUIPER-00587            
1 69275U 26118J   26158.25005787  .00059780  00000+0  16540-2 0  9999
2 69275  51.8620 101.3714 0008374 141.1204 203.3918 15.36401008  1303
KUIPER-00590            
1 69276U 26118K   26158.25005787  .00061420  00000+0  16338-2 0  9999
2 69276  51.8684 101.3027 0004273 122.2124 254.8846 15.37631800  2315
KUIPER-00592            
1 69277U 26118L   26158.25005787  .00062115  00000+0  16407-2 0  9999
2 69277  51.8705 101.2871 0003765 100.2858 282.9790 15.37846900  1308
KUIPER-00593            
1 69278U 26118M   26158.25005787  .00062799  00000+0  16638-2 0  9994
2 69278  51.8711 101.2874 0004148 116.8939 265.5311 15.37747196  2526
KUIPER-00594            
1 69279U 26118N   26158.25005787  .00071336  00000+0  18411-2 0  9993
2 69279  51.8718 101.2392 0001390  58.3626 346.7737 15.38501130  1304
KUIPER-00595            
1 69280U 26118P   26158.25005787  .00062575  00000+0  16315-2 0  9991
2 69280  51.8711 101.2580 0001974  97.7199 299.4406 15.38246587  2498
KUIPER-00596            
1 69281U 26118Q   26158.25005787  .00058246  00000+0  16536-2 0  9997
2 69281  51.8542 101.4246 0011924 147.7719 169.7076 15.35574249  1758
KUIPER-00597            
1 69282U 26118R   26158.25005787  .00062165  00000+0  16900-2 0  9998
2 69282  51.8644 101.3427 0007005 134.9072 223.6249 15.36938576  1296
KUIPER-00599            
1 69283U 26118S   26158.25005787  .00061192  00000+0  16546-2 0  9994
2 69283  51.8686 101.3314 0006282 128.1222 234.6943 15.37118146  1563
KUIPER-00600            
1 69284U 26118T   26158.25005787  .00059295  00000+0  16348-2 0  9996
2 69284  51.8633 101.3680 0008995 135.8260 210.2519 15.36507799  2332
