OBJECT_NAME,OBJECT_ID,EPOCH,MEAN_MOTION,ECCENTRICITY,INCLINATION,RA_OF_ASC_NODE,ARG_OF_PERICENTER,MEAN_ANOMALY,EPHEMERIS_TYPE,CLASSIFICATION_TYPE,NORAD_CAT_ID,ELEMENT_SET_NO,REV_AT_EPOCH,BSTAR,MEAN_MOTION_DOT,MEAN_MOTION_DDOT
STARLINK-37396,2026-117U,2026-06-07T06:00:04.999968,15.94821806,.00007116,53.1568,293.1956,66.8826,2.9958,0,U,69256,999,264,-.56513343E-2,-.220901E-1,.13511583E-2
STARLINK-37508,2026-117V,2026-06-07T06:00:04.999968,15.95076109,.00007377,53.1566,293.1803,64.3893,12.6552,0,U,69257,999,256,-.56503926E-2,-.2238696E-1,.1389833E-2
STARLINK-37276,2026-117W,2026-06-07T06:00:04.999968,16.00012377,.00006439,53.1559,293.0963,61.5979,55.5586,0,U,69258,999,256,-.36211602E-2,-.1890335E-1,.10664469E-2
STARLINK-37518,2026-117X,2026-06-07T06:00:04.999968,15.99976975,.00006586,53.1557,293.0850,75.8814,47.0715,0,U,69259,999,257,-.37333262E-2,-.1944247E-1,.11238561E-2
STARLINK-37478,2026-117Y,2026-06-07T06:00:04.999968,15.99127856,.00006686,53.1558,293.0832,73.6340,50.2096,0,U,69260,999,257,-.41686513E-2,-.2067085E-1,.12496244E-2
STARLINK-37506,2026-117Z,2026-06-07T06:00:04.999968,15.99153689,.00007695,53.1555,293.0737,66.4574,61.8722,0,U,69261,999,257,-.4244995E-2,-.2107572E-1,.12969588E-2
STARLINK-37503,2026-117AA,2026-06-07T06:00:04.999968,15.99084878,.00008024,53.1556,293.0613,66.5295,67.4097,0,U,69262,999,257,-.43644894E-2,-.2157935E-1,.13556771E-2
STARLINK-37502,2026-117AB,2026-06-07T06:00:04.999968,15.98848714,.00008007,53.1555,293.0563,61.7399,74.4880,0,U,69263,999,257,-.4270554E-2,-.2084326E-1,.12654324E-2
STARLINK-37486,2026-117AC,2026-06-07T06:00:04.999968,15.98903948,.00007498,53.1553,293.0445,67.1243,74.9126,0,U,69264,999,257,-.41933834E-2,-.2053395E-1,.12308164E-2
STARLINK-37435,2026-117AD,2026-06-07T06:00:04.999968,15.99429257,.00008034,53.1552,293.0243,68.0690,83.1702,0,U,69265,999,257,-.40475076E-2,-.2041908E-1,.1225146E-2
STARLINK-37464,2026-117AE,2026-06-07T06:00:04.999968,15.99919857,.00007972,53.1551,293.0045,59.3363,101.3548,0,U,69266,999,257,-.39286416E-2,-.2038145E-1,.12278032E-2
KUIPER-00282,2026-118A,2026-06-07T06:00:04.999968,15.35084290,.00117292,51.8577,101.4417,145.8689,163.8538,0,U,69267,999,182,.16737406E-2,.58035E-3,0
KUIPER-00383,2026-118B,2026-06-07T06:00:04.999968,15.35551363,.00109894,51.8581,101.4151,144.8234,178.0234,0,U,69268,999,188,.1937153E-2,.68319E-3,0
KUIPER-00527,2026-118C,2026-06-07T06:00:04.999968,15.35899599,.00095681,51.8609,101.3943,138.2106,194.9824,0,U,69269,999,130,.20126122E-2,.71796E-3,0
KUIPER-00562,2026-118D,2026-06-07T06:00:04.999968,15.38380808,.00020179,51.8720,101.2472,86.8211,312.4412,0,U,69270,999,242,.16784926E-2,.64688E-3,0
KUIPER-00570,2026-118E,2026-06-07T06:00:04.999968,15.35498167,.00116647,51.8568,101.4150,146.8082,176.0266,0,U,69271,999,200,.16432952E-2,.57731E-3,0
KUIPER-00572,2026-118F,2026-06-07T06:00:04.999968,15.36743848,.00073187,51.8667,101.3571,135.2534,215.6324,0,U,69272,999,175,.16374121E-2,.59823E-3,0
KUIPER-00581,2026-118G,2026-06-07T06:00:04.999968,15.36424133,.0008898,51.8646,101.3773,139.9308,201.4734,0,U,69273,999,254,.16512581E-2,.59734E-3,0
KUIPER-00584,2026-118H,2026-06-07T06:00:04.999968,15.35235245,.00111945,51.8594,101.4331,152.3683,161.6237,0,U,69274,999,130,.16771286E-2,.58427E-3,0
KUIPER-00587,2026-118J,2026-06-07T06:00:04.999968,15.36401008,.00083747,51.8620,101.3714,141.1204,203.3918,0,U,69275,999,130,.16539662E-2,.5978E-3,0
KUIPER-00590,2026-118K,2026-06-07T06:00:04.999968,15.37631800,.00042731,51.8684,101.3027,122.2124,254.8846,0,U,69276,999,231,.16338453E-2,.6142E-3,0
KUIPER-00592,2026-118L,2026-06-07T06:00:04.999968,15.37846900,.00037655,51.8705,101.2871,100.2858,282.9790,0,U,69277,999,130,.16406816E-2,.62115E-3,0
KUIPER-00593,2026-118M,2026-06-07T06:00:04.999968,15.37747196,.00041486,51.8711,101.2874,116.8939,265.5311,0,U,69278,999,252,.16637777E-2,.62799E-3,0
KUIPER-00594,2026-118N,2026-06-07T06:00:04.999968,15.38501130,.00013907,51.8718,101.2392,58.3626,346.7737,0,U,69279,999,130,.18411316E-2,.71336E-3,0
KUIPER-00595,2026-118P,2026-06-07T06:00:04.999968,15.38246587,.00019741,51.8711,101.2580,97.7199,299.4406,0,U,69280,999,249,.16315487E-2,.62575E-3,0
KUIPER-00596,2026-118Q,2026-06-07T06:00:04.999968,15.35574249,.0011924,51.8542,101.4246,147.7719,169.7076,0,U,69281,999,175,.16535723E-2,.58246E-3,0
KUIPER-00597,2026-118R,2026-06-07T06:00:04.999968,15.36938576,.00070054,51.8644,101.3427,134.9072,223.6249,0,U,69282,999,129,.16900435E-2,.62165E-3,0
KUIPER-00599,2026-118S,2026-06-07T06:00:04.999968,15.37118146,.0006282,51.8686,101.3314,128.1222,234.6943,0,U,69283,999,156,.16546039E-2,.61192E-3,0
KUIPER-00600,2026-118T,2026-06-07T06:00:04.999968,15.36507799,.00089959,51.8633,101.3680,135.8260,210.2519,0,U,69284,999,233,.16348461E-2,.59295E-3,0
